{"type":"FeatureCollection","features":[{"type":"Feature","properties":{"id":"Ep0-Np0","status":"in_progress","buildings":32,"steps":2},"geometry":{"type":"Polygon","coordinates":[[[11.035726260030478,43.92629631725599],[11.038220800050697,43.92629631725599],[11.038220800050697,43.9280959789196],[11.035726260030478,43.9280959789196],[11.035726260030478,43.92629631725599]]]}},{"type":"Feature","properties":{"id":"Em1-Np0","status":"geographic_base","buildings":24,"steps":2},"geometry":{"type":"Polygon","coordinates":[[[11.033231720010258,43.92629631725599],[11.035726260030478,43.92629631725599],[11.035726260030478,43.9280959789196],[11.033231720010258,43.9280959789196],[11.033231720010258,43.92629631725599]]]}},{"type":"Feature","properties":{"id":"Ep0-Nm1","status":"geographic_base","buildings":54,"steps":0},"geometry":{"type":"Polygon","coordinates":[[[11.035726260030478,43.924496655592385],[11.038220800050697,43.924496655592385],[11.038220800050697,43.92629631725599],[11.035726260030478,43.92629631725599],[11.035726260030478,43.924496655592385]]]}},{"type":"Feature","properties":{"id":"Ep0-Np1","status":"geographic_base","buildings":35,"steps":0},"geometry":{"type":"Polygon","coordinates":[[[11.035726260030478,43.9280959789196],[11.038220800050697,43.9280959789196],[11.038220800050697,43.929895640583204],[11.035726260030478,43.929895640583204],[11.035726260030478,43.9280959789196]]]}},{"type":"Feature","properties":{"id":"Ep1-Np0","status":"geographic_base","buildings":51,"steps":2},"geometry":{"type":"Polygon","coordinates":[[[11.038220800050697,43.92629631725599],[11.040715340070916,43.92629631725599],[11.040715340070916,43.9280959789196],[11.038220800050697,43.9280959789196],[11.038220800050697,43.92629631725599]]]}},{"type":"Feature","properties":{"id":"Em1-Nm1","status":"geographic_base","buildings":45,"steps":0},"geometry":{"type":"Polygon","coordinates":[[[11.033231720010258,43.924496655592385],[11.035726260030478,43.924496655592385],[11.035726260030478,43.92629631725599],[11.033231720010258,43.92629631725599],[11.033231720010258,43.924496655592385]]]}},{"type":"Feature","properties":{"id":"Em1-Np1","status":"geographic_base","buildings":74,"steps":0},"geometry":{"type":"Polygon","coordinates":[[[11.033231720010258,43.9280959789196],[11.035726260030478,43.9280959789196],[11.035726260030478,43.929895640583204],[11.033231720010258,43.929895640583204],[11.033231720010258,43.9280959789196]]]}},{"type":"Feature","properties":{"id":"Ep1-Nm1","status":"geographic_base","buildings":53,"steps":1},"geometry":{"type":"Polygon","coordinates":[[[11.038220800050697,43.924496655592385],[11.040715340070916,43.924496655592385],[11.040715340070916,43.92629631725599],[11.038220800050697,43.92629631725599],[11.038220800050697,43.924496655592385]]]}},{"type":"Feature","properties":{"id":"Ep1-Np1","status":"geographic_base","buildings":31,"steps":0},"geometry":{"type":"Polygon","coordinates":[[[11.038220800050697,43.9280959789196],[11.040715340070916,43.9280959789196],[11.040715340070916,43.929895640583204],[11.038220800050697,43.929895640583204],[11.038220800050697,43.9280959789196]]]}},{"type":"Feature","properties":{"id":"Em2-Np0","status":"geographic_base","buildings":20,"steps":0},"geometry":{"type":"Polygon","coordinates":[[[11.03073717999004,43.92629631725599],[11.033231720010258,43.92629631725599],[11.033231720010258,43.9280959789196],[11.03073717999004,43.9280959789196],[11.03073717999004,43.92629631725599]]]}},{"type":"Feature","properties":{"id":"Ep0-Nm2","status":"geographic_base","buildings":37,"steps":0},"geometry":{"type":"Polygon","coordinates":[[[11.035726260030478,43.922696993928774],[11.038220800050697,43.922696993928774],[11.038220800050697,43.924496655592385],[11.035726260030478,43.924496655592385],[11.035726260030478,43.922696993928774]]]}},{"type":"Feature","properties":{"id":"Ep0-Np2","status":"geographic_base","buildings":8,"steps":0},"geometry":{"type":"Polygon","coordinates":[[[11.035726260030478,43.929895640583204],[11.038220800050697,43.929895640583204],[11.038220800050697,43.931695302246816],[11.035726260030478,43.931695302246816],[11.035726260030478,43.929895640583204]]]}},{"type":"Feature","properties":{"id":"Ep2-Np0","status":"geographic_base","buildings":10,"steps":0},"geometry":{"type":"Polygon","coordinates":[[[11.040715340070916,43.92629631725599],[11.043209880091133,43.92629631725599],[11.043209880091133,43.9280959789196],[11.040715340070916,43.9280959789196],[11.040715340070916,43.92629631725599]]]}},{"type":"Feature","properties":{"id":"Em1-Nm2","status":"geographic_base","buildings":12,"steps":0},"geometry":{"type":"Polygon","coordinates":[[[11.033231720010258,43.922696993928774],[11.035726260030478,43.922696993928774],[11.035726260030478,43.924496655592385],[11.033231720010258,43.924496655592385],[11.033231720010258,43.922696993928774]]]}},{"type":"Feature","properties":{"id":"Em1-Np2","status":"geographic_base","buildings":11,"steps":0},"geometry":{"type":"Polygon","coordinates":[[[11.033231720010258,43.929895640583204],[11.035726260030478,43.929895640583204],[11.035726260030478,43.931695302246816],[11.033231720010258,43.931695302246816],[11.033231720010258,43.929895640583204]]]}},{"type":"Feature","properties":{"id":"Em2-Nm1","status":"geographic_base","buildings":19,"steps":0},"geometry":{"type":"Polygon","coordinates":[[[11.03073717999004,43.924496655592385],[11.033231720010258,43.924496655592385],[11.033231720010258,43.92629631725599],[11.03073717999004,43.92629631725599],[11.03073717999004,43.924496655592385]]]}},{"type":"Feature","properties":{"id":"Em2-Np1","status":"geographic_base","buildings":32,"steps":0},"geometry":{"type":"Polygon","coordinates":[[[11.03073717999004,43.9280959789196],[11.033231720010258,43.9280959789196],[11.033231720010258,43.929895640583204],[11.03073717999004,43.929895640583204],[11.03073717999004,43.9280959789196]]]}},{"type":"Feature","properties":{"id":"Ep1-Nm2","status":"geographic_base","buildings":50,"steps":0},"geometry":{"type":"Polygon","coordinates":[[[11.038220800050697,43.922696993928774],[11.040715340070916,43.922696993928774],[11.040715340070916,43.924496655592385],[11.038220800050697,43.924496655592385],[11.038220800050697,43.922696993928774]]]}},{"type":"Feature","properties":{"id":"Ep1-Np2","status":"geographic_base","buildings":3,"steps":0},"geometry":{"type":"Polygon","coordinates":[[[11.038220800050697,43.929895640583204],[11.040715340070916,43.929895640583204],[11.040715340070916,43.931695302246816],[11.038220800050697,43.931695302246816],[11.038220800050697,43.929895640583204]]]}},{"type":"Feature","properties":{"id":"Ep2-Nm1","status":"geographic_base","buildings":24,"steps":0},"geometry":{"type":"Polygon","coordinates":[[[11.040715340070916,43.924496655592385],[11.043209880091133,43.924496655592385],[11.043209880091133,43.92629631725599],[11.040715340070916,43.92629631725599],[11.040715340070916,43.924496655592385]]]}},{"type":"Feature","properties":{"id":"Ep2-Np1","status":"geographic_base","buildings":7,"steps":0},"geometry":{"type":"Polygon","coordinates":[[[11.040715340070916,43.9280959789196],[11.043209880091133,43.9280959789196],[11.043209880091133,43.929895640583204],[11.040715340070916,43.929895640583204],[11.040715340070916,43.9280959789196]]]}},{"type":"Feature","properties":{"id":"Em2-Nm2","status":"geographic_base","buildings":8,"steps":0},"geometry":{"type":"Polygon","coordinates":[[[11.03073717999004,43.922696993928774],[11.033231720010258,43.922696993928774],[11.033231720010258,43.924496655592385],[11.03073717999004,43.924496655592385],[11.03073717999004,43.922696993928774]]]}},{"type":"Feature","properties":{"id":"Em2-Np2","status":"geographic_base","buildings":13,"steps":0},"geometry":{"type":"Polygon","coordinates":[[[11.03073717999004,43.929895640583204],[11.033231720010258,43.929895640583204],[11.033231720010258,43.931695302246816],[11.03073717999004,43.931695302246816],[11.03073717999004,43.929895640583204]]]}},{"type":"Feature","properties":{"id":"Ep2-Nm2","status":"geographic_base","buildings":30,"steps":0},"geometry":{"type":"Polygon","coordinates":[[[11.040715340070916,43.922696993928774],[11.043209880091133,43.922696993928774],[11.043209880091133,43.924496655592385],[11.040715340070916,43.924496655592385],[11.040715340070916,43.922696993928774]]]}},{"type":"Feature","properties":{"id":"Ep2-Np2","status":"geographic_base","buildings":0,"steps":0},"geometry":{"type":"Polygon","coordinates":[[[11.040715340070916,43.929895640583204],[11.043209880091133,43.929895640583204],[11.043209880091133,43.931695302246816],[11.040715340070916,43.931695302246816],[11.040715340070916,43.929895640583204]]]}},{"type":"Feature","properties":{"id":"Em3-Np0","status":"geographic_base","buildings":19,"steps":0},"geometry":{"type":"Polygon","coordinates":[[[11.028242639969822,43.92629631725599],[11.03073717999004,43.92629631725599],[11.03073717999004,43.9280959789196],[11.028242639969822,43.9280959789196],[11.028242639969822,43.92629631725599]]]}},{"type":"Feature","properties":{"id":"Ep0-Nm3","status":"geographic_base","buildings":32,"steps":0},"geometry":{"type":"Polygon","coordinates":[[[11.035726260030478,43.92089733226517],[11.038220800050697,43.92089733226517],[11.038220800050697,43.922696993928774],[11.035726260030478,43.922696993928774],[11.035726260030478,43.92089733226517]]]}},{"type":"Feature","properties":{"id":"Ep0-Np3","status":"geographic_base","buildings":0,"steps":0},"geometry":{"type":"Polygon","coordinates":[[[11.035726260030478,43.931695302246816],[11.038220800050697,43.931695302246816],[11.038220800050697,43.93349496391042],[11.035726260030478,43.93349496391042],[11.035726260030478,43.931695302246816]]]}},{"type":"Feature","properties":{"id":"Ep3-Np0","status":"geographic_base","buildings":2,"steps":0},"geometry":{"type":"Polygon","coordinates":[[[11.043209880091133,43.92629631725599],[11.045704420111353,43.92629631725599],[11.045704420111353,43.9280959789196],[11.043209880091133,43.9280959789196],[11.043209880091133,43.92629631725599]]]}},{"type":"Feature","properties":{"id":"Em1-Nm3","status":"geographic_base","buildings":11,"steps":0},"geometry":{"type":"Polygon","coordinates":[[[11.033231720010258,43.92089733226517],[11.035726260030478,43.92089733226517],[11.035726260030478,43.922696993928774],[11.033231720010258,43.922696993928774],[11.033231720010258,43.92089733226517]]]}},{"type":"Feature","properties":{"id":"Em1-Np3","status":"geographic_base","buildings":13,"steps":0},"geometry":{"type":"Polygon","coordinates":[[[11.033231720010258,43.931695302246816],[11.035726260030478,43.931695302246816],[11.035726260030478,43.93349496391042],[11.033231720010258,43.93349496391042],[11.033231720010258,43.931695302246816]]]}},{"type":"Feature","properties":{"id":"Em3-Nm1","status":"geographic_base","buildings":11,"steps":0},"geometry":{"type":"Polygon","coordinates":[[[11.028242639969822,43.924496655592385],[11.03073717999004,43.924496655592385],[11.03073717999004,43.92629631725599],[11.028242639969822,43.92629631725599],[11.028242639969822,43.924496655592385]]]}},{"type":"Feature","properties":{"id":"Em3-Np1","status":"geographic_base","buildings":47,"steps":0},"geometry":{"type":"Polygon","coordinates":[[[11.028242639969822,43.9280959789196],[11.03073717999004,43.9280959789196],[11.03073717999004,43.929895640583204],[11.028242639969822,43.929895640583204],[11.028242639969822,43.9280959789196]]]}},{"type":"Feature","properties":{"id":"Ep1-Nm3","status":"geographic_base","buildings":16,"steps":0},"geometry":{"type":"Polygon","coordinates":[[[11.038220800050697,43.92089733226517],[11.040715340070916,43.92089733226517],[11.040715340070916,43.922696993928774],[11.038220800050697,43.922696993928774],[11.038220800050697,43.92089733226517]]]}},{"type":"Feature","properties":{"id":"Ep1-Np3","status":"geographic_base","buildings":0,"steps":0},"geometry":{"type":"Polygon","coordinates":[[[11.038220800050697,43.931695302246816],[11.040715340070916,43.931695302246816],[11.040715340070916,43.93349496391042],[11.038220800050697,43.93349496391042],[11.038220800050697,43.931695302246816]]]}},{"type":"Feature","properties":{"id":"Ep3-Nm1","status":"geographic_base","buildings":1,"steps":0},"geometry":{"type":"Polygon","coordinates":[[[11.043209880091133,43.924496655592385],[11.045704420111353,43.924496655592385],[11.045704420111353,43.92629631725599],[11.043209880091133,43.92629631725599],[11.043209880091133,43.924496655592385]]]}},{"type":"Feature","properties":{"id":"Ep3-Np1","status":"geographic_base","buildings":11,"steps":5},"geometry":{"type":"Polygon","coordinates":[[[11.043209880091133,43.9280959789196],[11.045704420111353,43.9280959789196],[11.045704420111353,43.929895640583204],[11.043209880091133,43.929895640583204],[11.043209880091133,43.9280959789196]]]}},{"type":"Feature","properties":{"id":"Em2-Nm3","status":"geographic_base","buildings":2,"steps":0},"geometry":{"type":"Polygon","coordinates":[[[11.03073717999004,43.92089733226517],[11.033231720010258,43.92089733226517],[11.033231720010258,43.922696993928774],[11.03073717999004,43.922696993928774],[11.03073717999004,43.92089733226517]]]}},{"type":"Feature","properties":{"id":"Em2-Np3","status":"geographic_base","buildings":14,"steps":0},"geometry":{"type":"Polygon","coordinates":[[[11.03073717999004,43.931695302246816],[11.033231720010258,43.931695302246816],[11.033231720010258,43.93349496391042],[11.03073717999004,43.93349496391042],[11.03073717999004,43.931695302246816]]]}},{"type":"Feature","properties":{"id":"Em3-Nm2","status":"geographic_base","buildings":15,"steps":0},"geometry":{"type":"Polygon","coordinates":[[[11.028242639969822,43.922696993928774],[11.03073717999004,43.922696993928774],[11.03073717999004,43.924496655592385],[11.028242639969822,43.924496655592385],[11.028242639969822,43.922696993928774]]]}},{"type":"Feature","properties":{"id":"Em3-Np2","status":"geographic_base","buildings":34,"steps":0},"geometry":{"type":"Polygon","coordinates":[[[11.028242639969822,43.929895640583204],[11.03073717999004,43.929895640583204],[11.03073717999004,43.931695302246816],[11.028242639969822,43.931695302246816],[11.028242639969822,43.929895640583204]]]}},{"type":"Feature","properties":{"id":"Ep2-Nm3","status":"geographic_base","buildings":0,"steps":0},"geometry":{"type":"Polygon","coordinates":[[[11.040715340070916,43.92089733226517],[11.043209880091133,43.92089733226517],[11.043209880091133,43.922696993928774],[11.040715340070916,43.922696993928774],[11.040715340070916,43.92089733226517]]]}},{"type":"Feature","properties":{"id":"Ep2-Np3","status":"geographic_base","buildings":0,"steps":0},"geometry":{"type":"Polygon","coordinates":[[[11.040715340070916,43.931695302246816],[11.043209880091133,43.931695302246816],[11.043209880091133,43.93349496391042],[11.040715340070916,43.93349496391042],[11.040715340070916,43.931695302246816]]]}},{"type":"Feature","properties":{"id":"Ep3-Nm2","status":"geographic_base","buildings":8,"steps":0},"geometry":{"type":"Polygon","coordinates":[[[11.043209880091133,43.922696993928774],[11.045704420111353,43.922696993928774],[11.045704420111353,43.924496655592385],[11.043209880091133,43.924496655592385],[11.043209880091133,43.922696993928774]]]}},{"type":"Feature","properties":{"id":"Ep3-Np2","status":"geographic_base","buildings":0,"steps":0},"geometry":{"type":"Polygon","coordinates":[[[11.043209880091133,43.929895640583204],[11.045704420111353,43.929895640583204],[11.045704420111353,43.931695302246816],[11.043209880091133,43.931695302246816],[11.043209880091133,43.929895640583204]]]}},{"type":"Feature","properties":{"id":"Em4-Np0","status":"geographic_base","buildings":2,"steps":0},"geometry":{"type":"Polygon","coordinates":[[[11.025748099949602,43.92629631725599],[11.028242639969822,43.92629631725599],[11.028242639969822,43.9280959789196],[11.025748099949602,43.9280959789196],[11.025748099949602,43.92629631725599]]]}},{"type":"Feature","properties":{"id":"Ep0-Nm4","status":"geographic_base","buildings":18,"steps":0},"geometry":{"type":"Polygon","coordinates":[[[11.035726260030478,43.91909767060156],[11.038220800050697,43.91909767060156],[11.038220800050697,43.92089733226517],[11.035726260030478,43.92089733226517],[11.035726260030478,43.91909767060156]]]}},{"type":"Feature","properties":{"id":"Ep0-Np4","status":"geographic_base","buildings":0,"steps":0},"geometry":{"type":"Polygon","coordinates":[[[11.035726260030478,43.93349496391042],[11.038220800050697,43.93349496391042],[11.038220800050697,43.93529462557403],[11.035726260030478,43.93529462557403],[11.035726260030478,43.93349496391042]]]}},{"type":"Feature","properties":{"id":"Ep4-Np0","status":"geographic_base","buildings":1,"steps":0},"geometry":{"type":"Polygon","coordinates":[[[11.045704420111353,43.92629631725599],[11.048198960131572,43.92629631725599],[11.048198960131572,43.9280959789196],[11.045704420111353,43.9280959789196],[11.045704420111353,43.92629631725599]]]}},{"type":"Feature","properties":{"id":"Em1-Nm4","status":"geographic_base","buildings":0,"steps":0},"geometry":{"type":"Polygon","coordinates":[[[11.033231720010258,43.91909767060156],[11.035726260030478,43.91909767060156],[11.035726260030478,43.92089733226517],[11.033231720010258,43.92089733226517],[11.033231720010258,43.91909767060156]]]}},{"type":"Feature","properties":{"id":"Em1-Np4","status":"geographic_base","buildings":13,"steps":0},"geometry":{"type":"Polygon","coordinates":[[[11.033231720010258,43.93349496391042],[11.035726260030478,43.93349496391042],[11.035726260030478,43.93529462557403],[11.033231720010258,43.93529462557403],[11.033231720010258,43.93349496391042]]]}},{"type":"Feature","properties":{"id":"Em4-Nm1","status":"geographic_base","buildings":3,"steps":0},"geometry":{"type":"Polygon","coordinates":[[[11.025748099949602,43.924496655592385],[11.028242639969822,43.924496655592385],[11.028242639969822,43.92629631725599],[11.025748099949602,43.92629631725599],[11.025748099949602,43.924496655592385]]]}},{"type":"Feature","properties":{"id":"Em4-Np1","status":"geographic_base","buildings":30,"steps":0},"geometry":{"type":"Polygon","coordinates":[[[11.025748099949602,43.9280959789196],[11.028242639969822,43.9280959789196],[11.028242639969822,43.929895640583204],[11.025748099949602,43.929895640583204],[11.025748099949602,43.9280959789196]]]}},{"type":"Feature","properties":{"id":"Ep1-Nm4","status":"geographic_base","buildings":6,"steps":0},"geometry":{"type":"Polygon","coordinates":[[[11.038220800050697,43.91909767060156],[11.040715340070916,43.91909767060156],[11.040715340070916,43.92089733226517],[11.038220800050697,43.92089733226517],[11.038220800050697,43.91909767060156]]]}},{"type":"Feature","properties":{"id":"Ep1-Np4","status":"geographic_base","buildings":0,"steps":0},"geometry":{"type":"Polygon","coordinates":[[[11.038220800050697,43.93349496391042],[11.040715340070916,43.93349496391042],[11.040715340070916,43.93529462557403],[11.038220800050697,43.93529462557403],[11.038220800050697,43.93349496391042]]]}},{"type":"Feature","properties":{"id":"Ep4-Nm1","status":"geographic_base","buildings":10,"steps":0},"geometry":{"type":"Polygon","coordinates":[[[11.045704420111353,43.924496655592385],[11.048198960131572,43.924496655592385],[11.048198960131572,43.92629631725599],[11.045704420111353,43.92629631725599],[11.045704420111353,43.924496655592385]]]}},{"type":"Feature","properties":{"id":"Ep4-Np1","status":"geographic_base","buildings":3,"steps":1},"geometry":{"type":"Polygon","coordinates":[[[11.045704420111353,43.9280959789196],[11.048198960131572,43.9280959789196],[11.048198960131572,43.929895640583204],[11.045704420111353,43.929895640583204],[11.045704420111353,43.9280959789196]]]}},{"type":"Feature","properties":{"id":"Em3-Nm3","status":"geographic_base","buildings":21,"steps":0},"geometry":{"type":"Polygon","coordinates":[[[11.028242639969822,43.92089733226517],[11.03073717999004,43.92089733226517],[11.03073717999004,43.922696993928774],[11.028242639969822,43.922696993928774],[11.028242639969822,43.92089733226517]]]}},{"type":"Feature","properties":{"id":"Em3-Np3","status":"geographic_base","buildings":25,"steps":0},"geometry":{"type":"Polygon","coordinates":[[[11.028242639969822,43.931695302246816],[11.03073717999004,43.931695302246816],[11.03073717999004,43.93349496391042],[11.028242639969822,43.93349496391042],[11.028242639969822,43.931695302246816]]]}},{"type":"Feature","properties":{"id":"Ep3-Nm3","status":"geographic_base","buildings":7,"steps":0},"geometry":{"type":"Polygon","coordinates":[[[11.043209880091133,43.92089733226517],[11.045704420111353,43.92089733226517],[11.045704420111353,43.922696993928774],[11.043209880091133,43.922696993928774],[11.043209880091133,43.92089733226517]]]}},{"type":"Feature","properties":{"id":"Ep3-Np3","status":"geographic_base","buildings":0,"steps":0},"geometry":{"type":"Polygon","coordinates":[[[11.043209880091133,43.931695302246816],[11.045704420111353,43.931695302246816],[11.045704420111353,43.93349496391042],[11.043209880091133,43.93349496391042],[11.043209880091133,43.931695302246816]]]}},{"type":"Feature","properties":{"id":"Em2-Nm4","status":"geographic_base","buildings":17,"steps":0},"geometry":{"type":"Polygon","coordinates":[[[11.03073717999004,43.91909767060156],[11.033231720010258,43.91909767060156],[11.033231720010258,43.92089733226517],[11.03073717999004,43.92089733226517],[11.03073717999004,43.91909767060156]]]}},{"type":"Feature","properties":{"id":"Em2-Np4","status":"geographic_base","buildings":24,"steps":0},"geometry":{"type":"Polygon","coordinates":[[[11.03073717999004,43.93349496391042],[11.033231720010258,43.93349496391042],[11.033231720010258,43.93529462557403],[11.03073717999004,43.93529462557403],[11.03073717999004,43.93349496391042]]]}},{"type":"Feature","properties":{"id":"Em4-Nm2","status":"geographic_base","buildings":14,"steps":0},"geometry":{"type":"Polygon","coordinates":[[[11.025748099949602,43.922696993928774],[11.028242639969822,43.922696993928774],[11.028242639969822,43.924496655592385],[11.025748099949602,43.924496655592385],[11.025748099949602,43.922696993928774]]]}},{"type":"Feature","properties":{"id":"Em4-Np2","status":"geographic_base","buildings":37,"steps":0},"geometry":{"type":"Polygon","coordinates":[[[11.025748099949602,43.929895640583204],[11.028242639969822,43.929895640583204],[11.028242639969822,43.931695302246816],[11.025748099949602,43.931695302246816],[11.025748099949602,43.929895640583204]]]}},{"type":"Feature","properties":{"id":"Ep2-Nm4","status":"geographic_base","buildings":1,"steps":0},"geometry":{"type":"Polygon","coordinates":[[[11.040715340070916,43.91909767060156],[11.043209880091133,43.91909767060156],[11.043209880091133,43.92089733226517],[11.040715340070916,43.92089733226517],[11.040715340070916,43.91909767060156]]]}},{"type":"Feature","properties":{"id":"Ep2-Np4","status":"geographic_base","buildings":1,"steps":0},"geometry":{"type":"Polygon","coordinates":[[[11.040715340070916,43.93349496391042],[11.043209880091133,43.93349496391042],[11.043209880091133,43.93529462557403],[11.040715340070916,43.93529462557403],[11.040715340070916,43.93349496391042]]]}},{"type":"Feature","properties":{"id":"Ep4-Nm2","status":"geographic_base","buildings":17,"steps":0},"geometry":{"type":"Polygon","coordinates":[[[11.045704420111353,43.922696993928774],[11.048198960131572,43.922696993928774],[11.048198960131572,43.924496655592385],[11.045704420111353,43.924496655592385],[11.045704420111353,43.922696993928774]]]}},{"type":"Feature","properties":{"id":"Ep4-Np2","status":"geographic_base","buildings":10,"steps":0},"geometry":{"type":"Polygon","coordinates":[[[11.045704420111353,43.929895640583204],[11.048198960131572,43.929895640583204],[11.048198960131572,43.931695302246816],[11.045704420111353,43.931695302246816],[11.045704420111353,43.929895640583204]]]}},{"type":"Feature","properties":{"id":"Em3-Nm4","status":"geographic_base","buildings":5,"steps":0},"geometry":{"type":"Polygon","coordinates":[[[11.028242639969822,43.91909767060156],[11.03073717999004,43.91909767060156],[11.03073717999004,43.92089733226517],[11.028242639969822,43.92089733226517],[11.028242639969822,43.91909767060156]]]}},{"type":"Feature","properties":{"id":"Em3-Np4","status":"geographic_base","buildings":7,"steps":0},"geometry":{"type":"Polygon","coordinates":[[[11.028242639969822,43.93349496391042],[11.03073717999004,43.93349496391042],[11.03073717999004,43.93529462557403],[11.028242639969822,43.93529462557403],[11.028242639969822,43.93349496391042]]]}},{"type":"Feature","properties":{"id":"Em4-Nm3","status":"geographic_base","buildings":6,"steps":0},"geometry":{"type":"Polygon","coordinates":[[[11.025748099949602,43.92089733226517],[11.028242639969822,43.92089733226517],[11.028242639969822,43.922696993928774],[11.025748099949602,43.922696993928774],[11.025748099949602,43.92089733226517]]]}},{"type":"Feature","properties":{"id":"Em4-Np3","status":"geographic_base","buildings":19,"steps":0},"geometry":{"type":"Polygon","coordinates":[[[11.025748099949602,43.931695302246816],[11.028242639969822,43.931695302246816],[11.028242639969822,43.93349496391042],[11.025748099949602,43.93349496391042],[11.025748099949602,43.931695302246816]]]}},{"type":"Feature","properties":{"id":"Em5-Np0","status":"geographic_base","buildings":0,"steps":0},"geometry":{"type":"Polygon","coordinates":[[[11.023253559929385,43.92629631725599],[11.025748099949602,43.92629631725599],[11.025748099949602,43.9280959789196],[11.023253559929385,43.9280959789196],[11.023253559929385,43.92629631725599]]]}},{"type":"Feature","properties":{"id":"Ep0-Nm5","status":"geographic_base","buildings":0,"steps":0},"geometry":{"type":"Polygon","coordinates":[[[11.035726260030478,43.917298008937955],[11.038220800050697,43.917298008937955],[11.038220800050697,43.91909767060156],[11.035726260030478,43.91909767060156],[11.035726260030478,43.917298008937955]]]}},{"type":"Feature","properties":{"id":"Ep0-Np5","status":"geographic_base","buildings":3,"steps":0},"geometry":{"type":"Polygon","coordinates":[[[11.035726260030478,43.93529462557403],[11.038220800050697,43.93529462557403],[11.038220800050697,43.937094287237635],[11.035726260030478,43.937094287237635],[11.035726260030478,43.93529462557403]]]}},{"type":"Feature","properties":{"id":"Ep3-Nm4","status":"geographic_base","buildings":1,"steps":0},"geometry":{"type":"Polygon","coordinates":[[[11.043209880091133,43.91909767060156],[11.045704420111353,43.91909767060156],[11.045704420111353,43.92089733226517],[11.043209880091133,43.92089733226517],[11.043209880091133,43.91909767060156]]]}},{"type":"Feature","properties":{"id":"Ep3-Np4","status":"geographic_base","buildings":2,"steps":0},"geometry":{"type":"Polygon","coordinates":[[[11.043209880091133,43.93349496391042],[11.045704420111353,43.93349496391042],[11.045704420111353,43.93529462557403],[11.043209880091133,43.93529462557403],[11.043209880091133,43.93349496391042]]]}},{"type":"Feature","properties":{"id":"Ep4-Nm3","status":"geographic_base","buildings":24,"steps":0},"geometry":{"type":"Polygon","coordinates":[[[11.045704420111353,43.92089733226517],[11.048198960131572,43.92089733226517],[11.048198960131572,43.922696993928774],[11.045704420111353,43.922696993928774],[11.045704420111353,43.92089733226517]]]}},{"type":"Feature","properties":{"id":"Ep4-Np3","status":"geographic_base","buildings":1,"steps":0},"geometry":{"type":"Polygon","coordinates":[[[11.045704420111353,43.931695302246816],[11.048198960131572,43.931695302246816],[11.048198960131572,43.93349496391042],[11.045704420111353,43.93349496391042],[11.045704420111353,43.931695302246816]]]}},{"type":"Feature","properties":{"id":"Ep5-Np0","status":"geographic_base","buildings":0,"steps":0},"geometry":{"type":"Polygon","coordinates":[[[11.048198960131572,43.92629631725599],[11.05069350015179,43.92629631725599],[11.05069350015179,43.9280959789196],[11.048198960131572,43.9280959789196],[11.048198960131572,43.92629631725599]]]}},{"type":"Feature","properties":{"id":"Em1-Nm5","status":"geographic_base","buildings":0,"steps":0},"geometry":{"type":"Polygon","coordinates":[[[11.033231720010258,43.917298008937955],[11.035726260030478,43.917298008937955],[11.035726260030478,43.91909767060156],[11.033231720010258,43.91909767060156],[11.033231720010258,43.917298008937955]]]}},{"type":"Feature","properties":{"id":"Em1-Np5","status":"geographic_base","buildings":1,"steps":0},"geometry":{"type":"Polygon","coordinates":[[[11.033231720010258,43.93529462557403],[11.035726260030478,43.93529462557403],[11.035726260030478,43.937094287237635],[11.033231720010258,43.937094287237635],[11.033231720010258,43.93529462557403]]]}},{"type":"Feature","properties":{"id":"Em5-Nm1","status":"geographic_base","buildings":0,"steps":0},"geometry":{"type":"Polygon","coordinates":[[[11.023253559929385,43.924496655592385],[11.025748099949602,43.924496655592385],[11.025748099949602,43.92629631725599],[11.023253559929385,43.92629631725599],[11.023253559929385,43.924496655592385]]]}},{"type":"Feature","properties":{"id":"Em5-Np1","status":"geographic_base","buildings":0,"steps":0},"geometry":{"type":"Polygon","coordinates":[[[11.023253559929385,43.9280959789196],[11.025748099949602,43.9280959789196],[11.025748099949602,43.929895640583204],[11.023253559929385,43.929895640583204],[11.023253559929385,43.9280959789196]]]}},{"type":"Feature","properties":{"id":"Ep1-Nm5","status":"geographic_base","buildings":0,"steps":0},"geometry":{"type":"Polygon","coordinates":[[[11.038220800050697,43.917298008937955],[11.040715340070916,43.917298008937955],[11.040715340070916,43.91909767060156],[11.038220800050697,43.91909767060156],[11.038220800050697,43.917298008937955]]]}},{"type":"Feature","properties":{"id":"Ep1-Np5","status":"geographic_base","buildings":0,"steps":0},"geometry":{"type":"Polygon","coordinates":[[[11.038220800050697,43.93529462557403],[11.040715340070916,43.93529462557403],[11.040715340070916,43.937094287237635],[11.038220800050697,43.937094287237635],[11.038220800050697,43.93529462557403]]]}},{"type":"Feature","properties":{"id":"Ep5-Nm1","status":"geographic_base","buildings":14,"steps":0},"geometry":{"type":"Polygon","coordinates":[[[11.048198960131572,43.924496655592385],[11.05069350015179,43.924496655592385],[11.05069350015179,43.92629631725599],[11.048198960131572,43.92629631725599],[11.048198960131572,43.924496655592385]]]}},{"type":"Feature","properties":{"id":"Ep5-Np1","status":"geographic_base","buildings":0,"steps":0},"geometry":{"type":"Polygon","coordinates":[[[11.048198960131572,43.9280959789196],[11.05069350015179,43.9280959789196],[11.05069350015179,43.929895640583204],[11.048198960131572,43.929895640583204],[11.048198960131572,43.9280959789196]]]}},{"type":"Feature","properties":{"id":"Em2-Nm5","status":"geographic_base","buildings":0,"steps":0},"geometry":{"type":"Polygon","coordinates":[[[11.03073717999004,43.917298008937955],[11.033231720010258,43.917298008937955],[11.033231720010258,43.91909767060156],[11.03073717999004,43.91909767060156],[11.03073717999004,43.917298008937955]]]}},{"type":"Feature","properties":{"id":"Em2-Np5","status":"geographic_base","buildings":6,"steps":0},"geometry":{"type":"Polygon","coordinates":[[[11.03073717999004,43.93529462557403],[11.033231720010258,43.93529462557403],[11.033231720010258,43.937094287237635],[11.03073717999004,43.937094287237635],[11.03073717999004,43.93529462557403]]]}},{"type":"Feature","properties":{"id":"Em5-Nm2","status":"geographic_base","buildings":1,"steps":0},"geometry":{"type":"Polygon","coordinates":[[[11.023253559929385,43.922696993928774],[11.025748099949602,43.922696993928774],[11.025748099949602,43.924496655592385],[11.023253559929385,43.924496655592385],[11.023253559929385,43.922696993928774]]]}},{"type":"Feature","properties":{"id":"Em5-Np2","status":"geographic_base","buildings":0,"steps":0},"geometry":{"type":"Polygon","coordinates":[[[11.023253559929385,43.929895640583204],[11.025748099949602,43.929895640583204],[11.025748099949602,43.931695302246816],[11.023253559929385,43.931695302246816],[11.023253559929385,43.929895640583204]]]}},{"type":"Feature","properties":{"id":"Ep2-Nm5","status":"geographic_base","buildings":0,"steps":0},"geometry":{"type":"Polygon","coordinates":[[[11.040715340070916,43.917298008937955],[11.043209880091133,43.917298008937955],[11.043209880091133,43.91909767060156],[11.040715340070916,43.91909767060156],[11.040715340070916,43.917298008937955]]]}},{"type":"Feature","properties":{"id":"Ep2-Np5","status":"geographic_base","buildings":1,"steps":0},"geometry":{"type":"Polygon","coordinates":[[[11.040715340070916,43.93529462557403],[11.043209880091133,43.93529462557403],[11.043209880091133,43.937094287237635],[11.040715340070916,43.937094287237635],[11.040715340070916,43.93529462557403]]]}},{"type":"Feature","properties":{"id":"Ep5-Nm2","status":"geographic_base","buildings":8,"steps":0},"geometry":{"type":"Polygon","coordinates":[[[11.048198960131572,43.922696993928774],[11.05069350015179,43.922696993928774],[11.05069350015179,43.924496655592385],[11.048198960131572,43.924496655592385],[11.048198960131572,43.922696993928774]]]}},{"type":"Feature","properties":{"id":"Ep5-Np2","status":"geographic_base","buildings":0,"steps":0},"geometry":{"type":"Polygon","coordinates":[[[11.048198960131572,43.929895640583204],[11.05069350015179,43.929895640583204],[11.05069350015179,43.931695302246816],[11.048198960131572,43.931695302246816],[11.048198960131572,43.929895640583204]]]}},{"type":"Feature","properties":{"id":"Em4-Nm4","status":"geographic_base","buildings":0,"steps":0},"geometry":{"type":"Polygon","coordinates":[[[11.025748099949602,43.91909767060156],[11.028242639969822,43.91909767060156],[11.028242639969822,43.92089733226517],[11.025748099949602,43.92089733226517],[11.025748099949602,43.91909767060156]]]}},{"type":"Feature","properties":{"id":"Em4-Np4","status":"geographic_base","buildings":0,"steps":0},"geometry":{"type":"Polygon","coordinates":[[[11.025748099949602,43.93349496391042],[11.028242639969822,43.93349496391042],[11.028242639969822,43.93529462557403],[11.025748099949602,43.93529462557403],[11.025748099949602,43.93349496391042]]]}},{"type":"Feature","properties":{"id":"Ep4-Nm4","status":"geographic_base","buildings":0,"steps":0},"geometry":{"type":"Polygon","coordinates":[[[11.045704420111353,43.91909767060156],[11.048198960131572,43.91909767060156],[11.048198960131572,43.92089733226517],[11.045704420111353,43.92089733226517],[11.045704420111353,43.91909767060156]]]}},{"type":"Feature","properties":{"id":"Ep4-Np4","status":"geographic_base","buildings":0,"steps":0},"geometry":{"type":"Polygon","coordinates":[[[11.045704420111353,43.93349496391042],[11.048198960131572,43.93349496391042],[11.048198960131572,43.93529462557403],[11.045704420111353,43.93529462557403],[11.045704420111353,43.93349496391042]]]}}]}